HIMAWARI-8              
1 40267U 14060A   24239.67688376 -.00000287  00000+0  00000+0 0  9997
2 40267   0.0381 246.9063 0000921 293.1690 179.6526  1.00272662 36253
